Name,Address,City,Zip
INVERLLANTAS,CALLE 29 A SUR #29C-52 - Bogotá,BOGOTÁ,
CSA POBLADO,CR 43A # 25A - 66,MEDELLIN,3137168485
CSA INTERLLANTAS  ÉXITO CALLE 80,CARRERA 59 A # 79 - 30,BOGOTÁ,3166914463
CSA INTERLLANTAS  ÉXITO NORTE CALLE 170,CALLE 175 # 22 - 13,BOGOTÁ,3166913544
CSA INTERLLANTAS ÉXITO BELLO ,DIAGONAL 51 # 35 - 20  ,BELLO,3217993714
CSA INTERLLANTAS ÉXITO VILLA MAYOR,AUTOPISTA SUR CALLE 38A SUR 07 ,BOGOTÁ,3166914440
CSA DUITAMA ,AVENIDA DE LAS AMERICAS # 27 - 11 ,DUITAMA,3104149206
CSA INTERLLANTAS IBAGUE,Carrera 20 Av. Ambala # 36-27,IBAGUE,312 4039413
CSA INTERLLANTAS VILLAVICENCIO,Carrera 1 # 15-05,VILLAVICENCIO,322 7289947
CSA INTERLLANTAS VALLEDUPAR,Carrera 7 # 28-04,VALLEDUPAR,310 2097884
CSA FUSAGASUGA,Calle 25 56-65,FUSAGASUGA,3134696600
CSA AGRESTE,CARRERA 43  # 31-99,MEDELLIN,3232213453
BRAVO MENESES Y ASOCIADOS S.A.S./BATERICARS,CRA 5TA N° 79 - 38,IBAGUE,3165836040
BRAVO MENESES Y ASOCIADOS S.A.S./BATERICARS,CRA 14 # 16A-02 AV. JULIAN BUCHELY,PASTO,3174423520
BRAVO MENESES Y ASOCIADOS S.A.S./BATERICARS,PARQUEADERO EXITO AV PANAMERICANA,PASTO,3174423620
BRAVO MENESES Y ASOCIADOS S.A.S./BATERICARS,CRA 14 N° 17-02 AV. CHAMPAGNAT,PASTO,3174423529
BRAVO MENESES Y ASOCIADOS S.A.S./BATERICARS,CRA 1A N° 12-106 IPIALES,IPIALES,3174423533
BRAVO MENESES Y ASOCIADOS S.A.S./BATERICARS,CRA 9 N° 6N-03 PARQUEADERO ÉXITO,POPAYÁN,3174423624
BRAVO MENESES Y ASOCIADOS S.A.S./BATERICARS,CARRERA 19 # 2 - 24 ARMENIA - QUINDÍO BATERICARS 10,ARMENIA,3176664705
BRAVO MENESES Y ASOCIADOS S.A.S./BATERICARS,CRA 15 CALLE 26 FRENTE AL PARQUE CAFETERO ARMENIA - QUINDÍO BATERICARS 8,ARMENIA,3173645090
MULTILLANTAS LA SABANA QR,CALLE 195 N 20 91 BOGOTA MULTILLANTAS LA SABANA,BOGOTÁ,3107586453
MULTILLANTAS LA SABANA QR,VEREDA BOJACA SEC. TRES ESQUINAS VILLA JULIA CHIA MULTILLANTAS FONTANAR,FONTANAR,3107586453
MULTILLANTAS LA SABANA QR,AVENIDA PRADILLA 1B 47 CHIA MULTILLANTAS CHIA,CHIA,3107586453
MULTILLANTAS LA SABANA QR,CARRERA 6 N 7B 40 FACATATIVA MULTILLANTAS FACATATIVA,FACATATIVA,3107586453
MULTILLANTAS LA SABANA QR,CALLE 4 N 32 141 ZIPAQUIRA MULTILLANTAS ZIPAQUIRA,ZIPAQUIRA,3107586453
MULTILLANTAS LA SABANA QR,VEREDA CANAVITA SECTOR LA HORMIGA KM 26 CHIA MULTILLANTAS TOCANCIPA,TOCANCIPA,3107586453
MULTILLANTAS LA SABANA QR,CALLE 4A N 27 62 N 27 62 MULTILLANATAS LA MESA,MESA,3107586453
MULTILLANTAS LA SABANA QR,CARRERA 21 N 195 08 BOGOTA BOGOTA SUPER LUJOS ZONA NORTE,BOGOTÁ,3107586453
ARDILLANTAS Y SERVICIOS SAS,"CR 52 29 29 SUR, BOGOTA",BOGOTÁ,3176415298
ARDILLANTAS Y SERVICIOS SAS,CALLE 15# 4A 25 BARRIO LA FORTUNA FUNZA,FUNZA,3176415298
MARLLANTAS S.A,CRA 63 A 44- 125,MEDELLIN,3113264414
AL LLANTAS S.A.S,"AV BOYACA #37-02 SUR BOGOTA, D.C.",BOGOTÁ,3102878457
DUARTE TORRES MARIA ELSA,CRA 14 8 91 SUR,TUNJA,3112011784
DUARTE TORRES MARIA ELSA,"AVENIDA UNIVERSITARIA NO. 75A - 00 TUNJA, BOYACÁ",TUNJA,3112011784
SERVILLANTAS LA 57 S.A.S.,CL 60 55 - 22,MEDELLIN,3127573609
LLANTAS Y SERVICIOS LOS HEROES S.A.,CR 20B 76 79,BOGOTÁ,3165284744
RAMIREZ GONZALEZ SILVANO IGNACIO,CRA 20 10-36,SOGAMOSO,3138189948
CRESEER+ SAS/KELUILLANTAS SAS/OROZCO GALLO JUAN DE DIOS,CALLE 22 26 A -28 AUTOP MED-BOG MARINILLA,MARINILLA,3136308887
BEHAINE GOMESCASSERES SAAD DAVID,CALLE 25A 28-73,SINCELEJO,3117087486
DIEGO LOPEZ SAS,CL 53 72 07 MEDELLIN,MEDELLIN,3186531388
LOPEZ DUQUE REYNALDO (MAXLLANTAS),CR 56 39 112 RIONEGRO,RIONEGRO,3108957622
TRANSPORTES PIEDECUESTA,KM 2 VIA,BOGOTÁ,3103008995
ESTACION DE SERVICIOS ARCANGEL S.A.S,CLL 78 VIA SEGUNDO ANILLO VIAL NORTE SUR MONTERIA,MONTERIA,785 17 47
SU LLANTA DEL NORTE S.A.S,CR 2 43 - 41,MONTERIA,7812080
REYES PALMERA JAIME LUIS,CL 41 8 - 37,MONTERIA,3145961301
GEBARA NABIL KHALED,CALLE 16#11-25,MAICAO,3217642180
GEBARA NABIL KHALED,CALLE 15#12A-05,GUAJIRA,3207388221
GEBARA NABIL KHALED,CALLE 10 #12-03,SANTA MARTA,3217642180
JAIRO A. ECHEVERRI & CAMPAÑIA LIMITADA,CL 53 53 - 66,BARRANQUILLA,3008344686
MULTICAUCHOS ACEITES Y BATERIAS SAS,AV3# 0- 83,CUCUTA,3102831332
REENCAUCHADORA DEL SUR S.A.S.,CALLE 30 SUR #32-52,BOGOTÁ,3212049684
REENCAUCHADORA DEL SUR S.A.S.,CALLE 29A SUR # 29C – 52,BOGOTÁ,3124500465
ALMACEN DE REPUESTOS LT MOTORS SAS,CR 10 24 -33 GIRARDOTA,GIRARDOTA,3138526026
IMPORTADORA DE LLANTAS DURANGO,CLL 44 SAN JUAN # 64-16,MEDELLIN,